ONEWEB-0094             
1 45450U 20020AC  25135.29978529  .00000099  00000+0  22263-3 0  9994
2 45450  87.9052  85.0618 0002046  79.5966 280.5396 13.17651829253919
ONEWEB-0087             
1 45451U 20020AD  25135.29620723 -.00000054  00000+0 -18941-3 0  9996
2 45451  87.8810 100.3194 0001922  76.4564 283.6778 13.11414840250439
ONEWEB-0082             
1 45452U 20020AE  25135.29295312 -.00000023  00000+0 -99332-4 0  9999
2 45452  87.8816 100.3403 0001823  82.3991 277.7344 13.11413803250520
ONEWEB-0050             
1 45453U 20020AF  25135.41965921  .00001897  00000+0  19202-3 0  9999
2 45453  87.9956 303.7086 0002193  29.8780 330.2574 14.90476635281159
ONEWEB-0034             
1 45454U 20020AG  25135.31415848 -.00000493  00000+0 -14258-2 0  9995
2 45454  87.8818 100.3551 0001989  83.4251 276.7103 13.11420107250440
ONEWEB-0060             
1 45455U 20020AH  25135.35752707  .00000539  00000+0  14847-2 0  9991
2 45455  87.8819 100.3731 0002164  82.9172 277.2202 13.11415762250407
ONEWEB-0086             
1 45456U 20020AJ  25135.34043172  .00000373  00000+0  10161-2 0  9991
2 45456  87.8818 100.3491 0001849  73.2421 286.8910 13.11417498250465
ONEWEB-0088             
1 45457U 20020AK  25135.31836787  .00000833  00000+0  23134-2 0  9996
2 45457  87.8818 100.3048 0002170  80.9390 279.1984 13.11427027250399
